{
  "type": "FeatureCollection",
  "name": "Garhwal Forest Division Sample",
  "crs": {
    "type": "name",
    "properties": {
      "name": "urn:ogc:def:crs:OGC:1.3:CRS84"
    }
  },
  "features": [
    {
      "type": "Feature",
      "properties": {
        "id": "reg_garhwal_001",
        "code": "GARHWAL_FD",
        "name": "Garhwal Forest Division",
        "state": "Uttarakhand",
        "division": "Garhwal",
        "area_sqkm": 284.5
      },
      "geometry": {
        "type": "Polygon",
        "coordinates": [
          [
            [78.60, 30.10],
            [78.85, 30.10],
            [78.85, 30.35],
            [78.60, 30.35],
            [78.60, 30.10]
          ]
        ]
      }
    }
  ]
}
